COSMOS 2425 (716)       
1 29670U 06062A   18077.51490733  .00000034  00000-0  10000-3 0  9994
2 29670  65.3235 295.6017 0022542 350.1232   0.4675  2.13104882 87377
COSMOS 2426 (717)       
1 29671U 06062B   18077.46769007  .00000034  00000-0  10000-3 0  9992
2 29671  65.3422 295.6995 0016541 158.8573  11.9185  2.13103016 87386
COSMOS 2433 (720)       
1 32275U 07052A   18077.34090484  .00000003  00000-0  10000-3 0  9995
2 32275  65.6470  56.4098 0005225 281.6273 127.1109  2.13104617 80895
COSMOS 2432 (719)       
1 32276U 07052B   18076.70341904  .00000003  00000-0  10000-3 0  9991
2 32276  65.6586  56.5078 0013608 327.1497 264.6819  2.13103946 80878
COSMOS 2434 (721)       
1 32393U 07065A   18076.71875765  .00000036  00000-0  00000-0 0  9995
2 32393  64.9391 294.6466 0005102  88.6646  91.1035  2.13102866 79584
COSMOS 2436 (723)       
1 32395U 07065C   18076.80935795  .00000036  00000-0  10000-3 0  9991
2 32395  64.9484 294.6937 0016712   5.2595 294.0576  2.13104235 79518
COSMOS 2456 (730)       
1 36111U 09070A   18077.37777156  .00000029  00000-0  00000+0 0  9994
2 36111  64.1838 174.2052 0004091 320.5746 176.7792  2.13102807 64267
COSMOS 2457 (733)       
1 36112U 09070B   18077.47640994  .00000029  00000-0  00000+0 0  9995
2 36112  64.1662 174.1137 0006109 164.4811 175.8667  2.13101509 64265
COSMOS 2458 (734)       
1 36113U 09070C   18077.46564493  .00000029  00000-0  10000-3 0  9999
2 36113  64.1708 174.1241 0001858  22.1106 358.2801  2.13102117 64270
COSMOS 2459 (731)       
1 36400U 10007A   18076.69630020  .00000001  00000-0  10000-3 0  9994
2 36400  65.5549  55.5030 0028783 347.3072 146.5835  2.13102221 62601
COSMOS 2461 (735)       
1 36401U 10007B   18076.81243781  .00000001  00000-0  10000-3 0  9993
2 36401  65.5501  55.4760 0005499  41.3953  92.1769  2.13102165 62606
COSMOS 2460 (732)       
1 36402U 10007C   18077.37044566  .00000001  00000-0  10000-3 0  9996
2 36402  65.5370  55.4246 0002854 305.3094 297.1743  2.13101680 62612
COSMOS 2464 (736)       
1 37139U 10041C   18077.58459878  .00000033  00000-0  00000+0 0  9991
2 37139  64.5436 294.4674 0025431  14.5542 337.2441  2.13102691 58681
COSMOS 2471 (701K)      
1 37372U 11009A   18077.23789582  .00000001  00000-0  00000+0 0  9990
2 37372  65.5362  55.3764 0009245 245.5389  37.2776  2.13107594 54886
COSMOS 2474 (742)       
1 37829U 11055A   18077.34260226  .00000028  00000-0  00000+0 0  9998
2 37829  64.5074 174.8854 0008060 246.5925  82.3389  2.13101816 50259
COSMOS 2476 (744)       
1 37867U 11064A   18076.45429486  .00000021  00000-0  00000-0 0  9990
2 37867  64.4875 174.9792 0017720 241.3556 172.1115  2.13101924 49597
COSMOS 2477 (745)       
1 37868U 11064B   18077.19763752  .00000027  00000-0  00000+0 0  9995
2 37868  64.4953 175.0014 0015406 242.4207 200.2799  2.13101703 49561
COSMOS 2475 (743)       
1 37869U 11064C   18077.49641144  .00000029  00000-0  00000+0 0  9991
2 37869  64.5025 174.9855 0019789 268.7495 359.7962  2.13101831 49577
COSMOS 2485 (747)       
1 39155U 13019A   18076.47579045  .00000021  00000-0  00000+0 0  9992
2 39155  64.6567 175.0673 0018034 235.9657 238.9173  2.13101894 38060
COSMOS 2492 (754)       
1 39620U 14012A   18076.78632499  .00000001  00000-0  10000-3 0  9993
2 39620  65.4276  55.3431 0017050 325.1090  62.6518  2.13103438 31025
COSMOS 2500 (755)       
1 40001U 14032A   18076.76751760  .00000000  00000-0  00000+0 0  9995
2 40001  65.3684  55.3200 0006447 232.9880   2.7925  2.13102798 29231
COSMOS 2501 (702K)      
1 40315U 14075A   18077.46950024  .00000031  00000-0  00000+0 0  9996
2 40315  64.2690 295.7162 0014050 206.4804  10.5014  2.13098484 25656
COSMOS 2514 (751)       
1 41330U 16008A   18077.30784244  .00000001  00000-0  00000+0 0  9991
2 41330  65.1708  55.3782 0009989 233.0413 237.9479  2.13103298 16413
COSMOS 2516 (753)       
1 41554U 16032A   18077.37925211  .00000032  00000-0  00000+0 0  9998
2 41554  64.4912 295.5602 0009930 219.4215 197.7562  2.13101610 14020
COSMOS 2522 (752)       
1 42939U 17055A   18076.58704081  .00000035  00000-0  00000+0 0  9997
2 42939  64.7195 295.5280 0005519 258.2736 137.5632  2.13101904  3769
